GLOBALSTAR M070         
1 32264U 07048B   23276.12106076 -.00000071  00000+0  18433-3 0  9999
2 32264  51.9737 226.5484 0000535 104.9911 268.6332 12.62279056734981
GLOBALSTAR M066         
1 32265U 07048C   23276.89976279 -.00000098  00000+0  33391-4 0  9994
2 32265  51.9665  86.2449 0001109  61.1255  85.9490 12.62265439737345
GLOBALSTAR M079         
1 37188U 10054A   23276.86035968 -.00000079  00000+0  13969-3 0  9999
2 37188  52.0025 234.2494 0000627  51.6637 326.0639 12.62268287597862
GLOBALSTAR M074         
1 37189U 10054B   23276.60367053 -.00000092  00000+0  68216-4 0  9996
2 37189  52.0001 234.4496 0000529  70.4339 100.5501 12.62270165598503
GLOBALSTAR M076         
1 37190U 10054C   23276.91698574 -.00000085  00000+0  10485-3 0  9993
2 37190  52.0017 233.6098 0001079  69.5108 326.1427 12.62261616598554
GLOBALSTAR M077         
1 37191U 10054D   23277.16575095 -.00000065  00000+0  21638-3 0  9994
2 37191  52.0065 189.5319 0000699  76.0488  69.1987 12.62264326599337
GLOBALSTAR M067 [+]     
1 32263U 07048A   23276.72086421 -.00000092  00000+0  39154-4 0  9992
2 32263  51.9735  57.2493 0001649  95.6714 277.9922 12.40632170732220
GLOBALSTAR M068 [-]     
1 32266U 07048D   23276.80178395 -.00000082  00000+0  12218-3 0  9996
2 32266  51.9904  39.3984 0000963 158.1916 322.7776 12.62767097738924
